[{"OBJECT_NAME":"STARLINK-33720","OBJECT_ID":"2025-070J","EPOCH":"2026-03-09T13:05:02.321664","MEAN_MOTION":15.27590949,"ECCENTRICITY":6.236e-5,"INCLINATION":42.9952,"RA_OF_ASC_NODE":260.6789,"ARG_OF_PERICENTER":340.746,"MEAN_ANOMALY":19.3367,"EPHEMERIS_TYPE":0,"CLASSIFICATION_TYPE":"U","NORAD_CAT_ID":63468,"ELEMENT_SET_NO":999,"REV_AT_EPOCH":5295,"BSTAR":0.00083312144,"MEAN_MOTION_DOT":0.00022742,"MEAN_MOTION_DDOT":0},{"OBJECT_NAME":"SIMSAT 1","OBJECT_ID":"2000-026A","EPOCH":"2026-03-09T17:22:54.646176","MEAN_MOTION":15.27666538,"ECCENTRICITY":0.00084816,"INCLINATION":86.3501,"RA_OF_ASC_NODE":180.5413,"ARG_OF_PERICENTER":14.8337,"MEAN_ANOMALY":345.3157,"EPHEMERIS_TYPE":0,"CLASSIFICATION_TYPE":"U","NORAD_CAT_ID":26365,"ELEMENT_SET_NO":999,"REV_AT_EPOCH":42720,"BSTAR":0.00013499313,"MEAN_MOTION_DOT":3.69e-5,"MEAN_MOTION_DDOT":0}]
